COSMOS 2550             
1 48865U 21056A   26067.47400841 -.00000192  00000+0 -13338-7 0  9992
2 48865  67.1451  44.6088 0008369 269.6014  90.4182 15.33829151263273
STARLINK-30425          
1 57850U 23141L   26068.88579926  .00000220  00000+0  19559-4 0  9998
2 57850  53.1599 283.2874 0001157  87.6443 272.4690 15.30192579140354
